# FY3D (LEO)
1 43010U 17072A   25224.52771852  .00000060  00000+0  50225-4 0  9990
2 43010  98.9673 189.1381 0001212 163.2893 196.8323 14.19631865401192

# FY3E (LEO)
1 49008U 21062A   25224.55198448 -.00000001  00000+0  20362-4 0  9999
2 49008  98.7446 226.5079 0000515 229.9490 130.1642 14.19857380212781

# FY3F (LEO)
1 57490U 23111A   25224.53922792  .00000063  00000+0  50222-4 0  9990
2 57490  98.7236 294.7101 0000770 103.3588 256.7674 14.19851443105067

# FY3G (LEO)
1 56232U 23055A   25224.22455581  .00026749  00000+0  43741-3 0  9999
2 56232  49.9947 139.1637 0017466 321.2325  38.7388 15.52120286131985

# C2E1 (LEO)
1 44349U 19036L   25224.58908353  .00003391  00000+0  25980-3 0  9991
2 44349  23.9988 314.8613 0000724 347.3413  12.7070 14.97282456338356

# C2E2 (LEO)
1 44351U 19036N   25223.90008571  .00003425  00000+0  26273-3 0  9996
2 44351  23.9981  75.9097 0000845 319.2219  40.8219 14.97276080337238

# C2E3 (LEO)
1 44343U 19036E   25224.07789452  .00004854  00000+0  30102-3 0  9993
2 44343  23.9985 140.5695 0000764 187.9248 172.1243 15.06148718336522

# C2E4 (LEO)
1 44350U 19036M   25224.47678097  .00004443  00000+0  34846-3 0  9990
2 44350  23.9992  17.6881 0000850 339.4395  20.6072 14.97275705337751

# C2E5 (LEO)
1 44358U 19036V   25224.57884372  .00003934  00000+0  27074-3 0  9993
2 44358  23.9981 191.4413 0001822 120.2709 239.7973 15.01754336336046

# C2E6 (LEO)
1 44353U 19036Q   25224.43297967  .00003077  00000+0  23348-3 0  9999
2 44353  23.9972 253.1389 0001150 352.6980   7.3504 14.97269311335490

# G01 (GNSS)
1 62339U 24242A   25224.47604505 -.00000080  00000+0  00000+0 0  9990
2 62339  54.9600 346.6925 0006571 344.9103 194.4976  2.00559227  5060

# G02 (GNSS)
1 28474U 04045A   25224.26279546 -.00000076  00000+0  00000+0 0  9996
2 28474  55.2978 337.3319 0166534 305.1512 111.4628  2.00563831152238

# G03 (GNSS)
1 40294U 14068A   25224.30465879 -.00000035  00000+0  00000+0 0  9992
2 40294  56.7682  42.8778 0062055  68.8851 291.8166  2.00557267 79019

# G04 (GNSS)
1 43873U 18109A   25224.12880637  .00000013  00000+0  00000+0 0  9996
2 43873  55.4927 104.3897 0034442 195.3175 336.5356  2.00572896 48876

# G05 (GNSS)
1 35752U 09043A   25224.49697541 -.00000041  00000+0  00000+0 0  9992
2 35752  56.0071  39.5996 0055529  80.6567 277.3411  2.00572549117145

# G06 (GNSS)
1 39741U 14026A   25224.34210803 -.00000077  00000+0  00000+0 0  9996
2 39741  56.6284 343.5361 0035012 318.1034  41.6483  2.00569964 82347

# G07 (GNSS)
1 32711U 08012A   25224.02335612  .00000041  00000+0  00000+0 0  9995
2 32711  54.4668 162.2713 0200375 243.9546 113.9607  2.00560287127558

# G08 (GNSS)
1 40730U 15033A   25224.10356508  .00000004  00000+0  00000+0 0  9991
2 40730  54.2304 279.8171 0104622  25.2336 335.3563  2.00571849 73795

# G09 (GNSS)
1 40105U 14045A   25223.93420858  .00000011  00000+0  00000+0 0  9997
2 40105  55.1484 100.7992 0031637 116.2106 244.2012  2.00564860 79871

# G10 (GNSS)
1 41019U 15062A   25222.16621218 -.00000029  00000+0  00000+0 0  9999
2 41019  56.7433  42.8165 0105178 227.8299 131.3176  2.00567012 71599

# G11 (GNSS)
1 48859U 21054A   25224.48805833 -.00000079  00000+0  00000+0 0  9995
2 48859  55.2989 344.8625 0022074 226.4777 205.6956  2.00559987 30568

# G12 (GNSS)
1 29601U 06052A   25222.80388876  .00000068  00000+0  00000+0 0  9994
2 29601  55.0039 226.3120 0084653  86.8570 274.1293  2.00566253137185

# G13 (GNSS)
1 24876U 97035A   25224.08174311  .00000016  00000+0  00000+0 0  9996
2 24876  55.8313 110.6677 0093963  55.4765 305.4860  2.00562604205754

# G14 (GNSS)
1 46826U 20078A   25224.38928583  .00000070  00000+0  00000+0 0  9999
2 46826  54.0488 223.3032 0061895 203.2837 326.7969  2.00566814 35312

# G15 (GNSS)
1 32260U 07047A   25222.61015296  .00000009  00000+0  00000+0 0  9991
2 32260  53.8634  92.8864 0163556  82.8067 279.1414  2.00569619130604

# G16 (GNSS)
1 27663U 03005A   25224.48696509  .00000071  00000+0  00000+0 0  9990
2 27663  54.9600 227.2355 0143131  50.4089 307.5955  2.00551003165119

# G17 (GNSS)
1 28874U 05038A   25224.23163811 -.00000006  00000+0  00000+0 0  9990
2 28874  55.1333 285.6323 0133362 290.7151  67.4031  2.00556321145637

# G18 (GNSS)
1 44506U 19056A   25224.52613888 -.00000078  00000+0  00000+0 0  9990
2 44506  55.7654 343.4043 0055447 194.5316 161.4751  2.00562859 43872

# G19 (GNSS)
1 28190U 04009A   25223.76571810 -.00000008  00000+0  00000+0 0  9999
2 28190  55.0885 288.1746 0107097 164.0402 194.8107  2.00565447156735

# G20 (GNSS)
1 26360U 00025A   25224.46908966 -.00000052  00000+0  00000+0 0  9993
2 26360  54.9735  31.7797 0036041 233.0646 135.5016  2.00576957185088

# G21 (GNSS)
1 64202U 25116A   25222.22223639 -.00000032  00000+0  00000+0 0  9995
2 64202  55.0140  43.6676 0001423 306.9698 235.7928  2.00567007  1637

# G22 (GNSS)
1 26407U 00040A   25224.41280280  .00000070  00000+0  00000+0 0  9998
2 26407  54.9259 227.4282 0131992 299.3143 230.1127  2.00566451183757

# G23 (GNSS)
1 45854U 20041A   25221.64073877 -.00000031  00000+0  00000+0 0  9990
2 45854  56.4585  41.0549 0055841 199.1137 178.2647  2.00565146 37798

# G24 (GNSS)
1 38833U 12053A   25224.20193057  .00000036  00000+0  00000+0 0  9995
2 38833  53.5428 156.2568 0169410  61.6178 300.0757  2.00563619 93249

# G25 (GNSS)
1 36585U 10022A   25224.48928139  .00000071  00000+0  00000+0 0  9997
2 36585  54.3293 220.9990 0121249  64.1243  49.3808  2.00572761111404

# G26 (GNSS)
1 40534U 15013A   25224.43970253  .00000069  00000+0  00000+0 0  9997
2 40534  53.2272 216.9494 0100589  35.6009 325.0600  2.00569726 75634

# G27 (GNSS)
1 39166U 13023A   25224.06592091  .00000002  00000+0  00000+0 0  9991
2 39166  54.7511 281.5532 0132787  48.1605 313.0479  2.00565625 89687

# G28 (GNSS)
1 55268U 23009A   25221.45802513  .00000022  00000+0  00000+0 0  9992
2 55268  55.0971 160.7653 0003764 337.4158 107.0954  2.00565256 18998

# G29 (GNSS)
1 32384U 07062A   25224.43210484 -.00000008  00000+0  00000+0 0  9993
2 32384  55.2815 286.5509 0032689 161.8894 202.2282  2.00571221129323

# G30 (GNSS)
1 39533U 14008A   25224.06392593  .00000040  00000+0  00000+0 0  9990
2 39533  53.6195 161.9268 0078624 226.3569 132.9790  2.00567026 83489

# G31 (GNSS)
1 29486U 06042A   25224.63362628  .00000044  00000+0  00000+0 0  9998
2 29486  54.6870 163.5852 0105308  48.0829 142.1095  2.00559245138207

# G32 (GNSS)
1 41328U 16007A   25223.24514064  .00000015  00000+0  00000+0 0  9996
2 41328  55.3291 101.7593 0088009 242.6323 116.5543  2.00567070 69623

# C06 (GNSS)
1 36828U 10036A   25224.27531832 -.00000122  00000+0  00000+0 0  9997
2 36828  54.2807 165.7587 0049015 217.3835 143.6269  1.00260336 55004

# C04 (GNSS)
1 37210U 10057A   25224.55787528 -.00000111  00000+0  00000+0 0  9990
2 37210   2.8753  70.3446 0006499 166.2135  85.5549  1.00272287 54190

# C07 (GNSS)
1 37256U 10068A   25224.53792493 -.00000175  00000+0  00000+0 0  9997
2 37256  48.1028 275.6559 0048723 215.3252 131.8226  1.00271021 53691

# C14 (GNSS)
1 38775U 12050B   25219.24894824 -.00000005  00000+0  00000+0 0  9992
2 38775  56.2639  73.2959 0012218 356.3434   3.7366  1.86231112 87814

# C01 (GNSS)
1 44231U 19027A   25224.55184916 -.00000247  00000+0  00000+0 0  9999
2 44231   1.8286  75.2109 0003546 239.8670 349.3878  1.00269851 22983

# C24 (GNSS)
1 43582U 18062B   25224.22113060  .00000067  00000+0  00000+0 0  9990
2 43582  54.0992 192.7975 0005130   8.3280 351.6462  1.86229529 47881

# C26 (GNSS)
1 43602U 18067A   25223.62060131  .00000062  00000+0  00000+0 0  9996
2 43602  54.1925 191.5378 0007594  26.3345 333.6676  1.86227599 47357

# C25 (GNSS)
1 43603U 18067B   25224.29175755  .00000067  00000+0  00000+0 0  9995
2 43603  54.1898 191.4793 0004396  10.1278 349.8467  1.86227131 47393

# C32 (GNSS)
1 43622U 18072A   25224.24985628 -.00000006  00000+0  00000+0 0  9999
2 43622  56.3491  72.8744 0004907 326.5726  33.4788  1.86231269 46900

# C33 (GNSS)
1 43623U 18072B   25221.43057435  .00000005  00000+0  00000+0 0  9992
2 43623  56.3484  72.9618 0004484  11.0637 349.0378  1.86231364 46841

# C35 (GNSS)
1 43647U 18078A   25224.27460196 -.00000054  00000+0  00000+0 0  9996
2 43647  54.3685 310.8022 0005976  28.1744 331.9208  1.86232188 46405

# C34 (GNSS)
1 43648U 18078B   25224.40380101 -.00000055  00000+0  00000+0 0  9990
2 43648  54.3642 310.7991 0002717  43.2990 316.7851  1.86232273 46426

# C59 (GNSS)
1 43683U 18085A   25224.54991280 -.00000277  00000+0  00000+0 0  9994
2 43683   2.8009 106.4780 0004253 359.8408 192.8929  1.00274548 24964

# C36 (GNSS)
1 43706U 18093A   25224.02307448  .00000066  00000+0  00000+0 0  9994
2 43706  54.1829 192.7846 0009878 289.4223  70.4361  1.86228129 45762

# C37 (GNSS)
1 43707U 18093B   25223.34805335  .00000061  00000+0  00000+0 0  9992
2 43707  54.1838 192.7993 0008035 316.8938  43.0069  1.86229761 45762

# C38 (GNSS)
1 44204U 19023A   25224.39747426 -.00000195  00000+0  00000+0 0  9990
2 44204  58.2601  40.8373 0024236 214.9852 327.3529  1.00280458  4116

# C39 (GNSS)
1 44337U 19035A   25223.75410281 -.00000140  00000+0  00000+0 0  9995
2 44337  55.2159 161.5832 0035392 209.8843 338.1366  1.00253308 22569

# C46 (GNSS)
1 44542U 19061A   25223.95624909  .00000066  00000+0  00000+0 0  9994
2 44542  54.4105 193.1567 0008487 354.7639   5.1923  1.86229239 40035

# C45 (GNSS)
1 44543U 19061B   25224.34473596  .00000069  00000+0  00000+0 0  9996
2 44543  54.4092 193.1120 0005731 336.2321 196.9640  1.86229292 40043

# C40 (GNSS)
1 44709U 19073A   25223.56959259 -.00000158  00000+0  00000+0 0  9991
2 44709  55.3296 284.2444 0045577 190.5648 169.4702  1.00281800 21355

# C44 (GNSS)
1 44793U 19078A   25223.79798720 -.00000052  00000+0  00000+0 0  9991
2 44793  54.2156 310.6993 0004748  37.2036 322.8926  1.86232105 38884

# C43 (GNSS)
1 44794U 19078B   25220.17406628 -.00000051  00000+0  00000+0 0  9993
2 44794  54.1924 310.7936 0002810  31.9500 328.1227  1.86227792 38823
